"{\n    \"CCSDS_OMM_VERS\": \"2.0\",\n    \"COMMENT\": \"GENERATED VIA SPACE-TRACK.ORG API\",\n    \"CREATION_DATE\": \"2025-08-31T17:37:22\",\n    \"ORIGINATOR\": \"18 SPCS\",\n    \"OBJECT_NAME\": \"BEIDOU 2 G8\",\n    \"OBJECT_ID\": \"2019-027A\",\n    \"CENTER_NAME\": \"EARTH\",\n    \"REF_FRAME\": \"TEME\",\n    \"TIME_SYSTEM\": \"UTC\",\n    \"MEAN_ELEMENT_THEORY\": \"SGP4\",\n    \"EPOCH\": \"2025-08-31T15:00:49.164192\",\n    \"MEAN_MOTION\": \"1.0027618098\",\n    \"ECCENTRICITY\": \"0.00064476112\",\n    \"INCLINATION\": \"1.395136\",\n    \"RA_OF_ASC_NODE\": \"74.280199\",\n    \"ARG_OF_PERICENTER\": \"271.08989\",\n    \"MEAN_ANOMALY\": \"4.3507126\",\n    \"EPHEMERIS_TYPE\": \"0\",\n    \"CLASSIFICATION_TYPE\": \"U\",\n    \"NORAD_CAT_ID\": \"44231\",\n    \"ELEMENT_SET_NO\": \"999\",\n    \"REV_AT_EPOCH\": \"2317\",\n    \"BSTAR\": \"0\",\n    \"MEAN_MOTION_DOT\": \"-0.00000243407\",\n    \"MEAN_MOTION_DDOT\": \"0\",\n    \"TLE_LINE0\": \"0 BEIDOU 2 G8\",\n    \"TLE_LINE1\": \"1 44231U 19027A   25243.62556903 -.00000243  00000-0  00000-0 0  9995\",\n    \"TLE_LINE2\": \"2 44231   1.3951  74.2802 0006448 271.0899   4.3507  1.00276181 23174\",\n    \"SEMIMAJOR_AXIS\": \"42163.500\",\n    \"PERIOD\": \"1436.034\",\n    \"APOAPSIS\": \"35812.550\",\n    \"PERIAPSIS\": \"35758.179\",\n    \"OBJECT_TYPE\": \"PAYLOAD\",\n    \"DECAYED\": \"0\"\n}"